GLOBALSTAR M075         
1 37192U 10054E   24205.49544156 -.00000074  00000+0  16744-3 0  9999
2 37192  51.9949 102.3314 0000570  53.5274 119.0946 12.62261961634866
GLOBALSTAR M073         
1 37193U 10054F   24204.93795395 -.00000104  00000+0 -31865-5 0  9999
2 37193  52.0081  17.5977 0000848  78.3088  78.7270 12.62267173636251
GLOBALSTAR M083         
1 37739U 11033A   24204.87067807 -.00000070  00000+0  18579-3 0  9992
2 37739  51.9880 326.9830 0000616 125.0158  27.8144 12.62262618605269
GLOBALSTAR M088         
1 37740U 11033B   24205.22306198 -.00000093  00000+0  62561-4 0  9999
2 37740  51.9711 231.6780 0000241 195.4037 239.6880 12.62265522601141
GLOBALSTAR M091         
1 37741U 11033C   24205.22299826 -.00000111  00000+0 -42388-4 0  9996
2 37741  51.9968 194.6456 0000246 233.3711 139.8764 12.62264917601903
GLOBALSTAR M085         
1 37742U 11033D   24205.14999404 -.00000090  00000+0  75628-4 0  9995
2 37742  51.9857 146.1951 0000177  12.3759  90.4079 12.62263591602632
GLOBALSTAR M081         
1 37743U 11033E   24205.17710852 -.00000108  00000+0 -21107-4 0  9991
2 37743  51.9945 148.6972 0000380 346.0417 119.3718 12.62267022602673
GLOBALSTAR M089         
1 37744U 11033F   24204.80743598 -.00000078  00000+0  14227-3 0  9993
2 37744  51.9929 104.1155 0000909  41.3385   1.9234 12.62266122603098
